{"type":"FeatureCollection","features":[{"type":"Feature","geometry":{"type":"Point","coordinates":[37.600236,55.777315]},"properties":{"name":"Boiler House","kind":"Boiler house","address":"33 Dolgorukovskaya St, bldg 13","osm":"https://www.openstreetmap.org/way/37131001"}},{"type":"Feature","geometry":{"type":"Point","coordinates":[37.835549,55.761717]},"properties":{"name":"Boiler House","kind":"Boiler house","address":"5 Molostovykh St, bldg 2","fuel":"gas","osm":"https://www.openstreetmap.org/way/39963175"}},{"type":"Feature","geometry":{"type":"Point","coordinates":[37.831232,55.759946]},"properties":{"name":"Boiler House","kind":"Boiler house","address":"10 Molostovykh St, bldg 4","fuel":"gas","osm":"https://www.openstreetmap.org/way/40032756"}},{"type":"Feature","geometry":{"type":"Point","coordinates":[37.588141,55.654063]},"properties":{"name":"Boiler House","kind":"Boiler house","address":"22 Odesskaya St, block 1, bldg 1","fuel":"gas","osm":"https://www.openstreetmap.org/way/46166571"}},{"type":"Feature","geometry":{"type":"Point","coordinates":[37.72971,55.752337]},"properties":{"name":"CHP-11 named after M. Ya. Ufaev","kind":"CHP plant","operator":"Mosenergo PJSC","fuel":"gas","power":"896.673 MW","osm":"https://www.openstreetmap.org/way/51303538"}},{"type":"Feature","geometry":{"type":"Point","coordinates":[37.35282,55.599918]},"properties":{"name":"Boiler House","kind":"Boiler house","osm":"https://www.openstreetmap.org/way/63096162"}},{"type":"Feature","geometry":{"type":"Point","coordinates":[37.389863,55.88352]},"properties":{"name":"Boiler House","kind":"Boiler house","address":"14 Landyshevaya St, bldg 2","fuel":"gas","osm":"https://www.openstreetmap.org/way/86970353"}},{"type":"Feature","geometry":{"type":"Point","coordinates":[37.523827,55.550969]},"properties":{"name":"Yuzhnoye Butovo District Heating Station","kind":"CHP plant","fuel":"gas","osm":"https://www.openstreetmap.org/way/90856509"}},{"type":"Feature","geometry":{"type":"Point","coordinates":[37.400497,55.685028]},"properties":{"name":"Boiler House","kind":"Boiler house","fuel":"gas","osm":"https://www.openstreetmap.org/way/100465951"}},{"type":"Feature","geometry":{"type":"Point","coordinates":[37.365299,55.892662]},"properties":{"name":"Boiler House","kind":"Boiler house","fuel":"gas","osm":"https://www.openstreetmap.org/way/105293640"}},{"type":"Feature","geometry":{"type":"Point","coordinates":[37.424103,55.713762]},"properties":{"name":"Kuntsevo District Heating Station","kind":"Heating station","osm":"https://www.openstreetmap.org/way/121802473"}},{"type":"Feature","geometry":{"type":"Point","coordinates":[37.720664,55.808149]},"properties":{"name":"Local Heating Station No. 42","kind":"CHP plant","operator":"MOEK OJSC","fuel":"gas","osm":"https://www.openstreetmap.org/way/125105472"}},{"type":"Feature","geometry":{"type":"Point","coordinates":[37.335277,55.873165]},"properties":{"name":"Boiler House","kind":"Boiler house","fuel":"gas","osm":"https://www.openstreetmap.org/way/135960383"}},{"type":"Feature","geometry":{"type":"Point","coordinates":[37.394194,55.913508]},"properties":{"name":"Boiler House","kind":"Boiler house","osm":"https://www.openstreetmap.org/way/174043429"}},{"type":"Feature","geometry":{"type":"Point","coordinates":[37.38886,55.892656]},"properties":{"name":"Boiler House","kind":"Boiler house","fuel":"gas","osm":"https://www.openstreetmap.org/way/176175840"}},{"type":"Feature","geometry":{"type":"Point","coordinates":[37.39553,55.890362]},"properties":{"name":"Boiler House","kind":"Boiler house","operator":"MOEK PJSC","address":"12B Vorotynskaya St","fuel":"gas","osm":"https://www.openstreetmap.org/way/176180643"}},{"type":"Feature","geometry":{"type":"Point","coordinates":[37.345879,55.814462]},"properties":{"name":"Boiler House No. 10","kind":"Boiler house","operator":"Krasnogorskaya Teploset JSC","fuel":"gas","osm":"https://www.openstreetmap.org/way/197440523"}},{"type":"Feature","geometry":{"type":"Point","coordinates":[37.375084,55.587336]},"properties":{"name":"Boiler House","kind":"Boiler house","osm":"https://www.openstreetmap.org/way/204029095"}},{"type":"Feature","geometry":{"type":"Point","coordinates":[37.661097,55.746121]},"properties":{"name":"Boiler House","kind":"Boiler house","address":"21 Stanislavskogo St, bldg 19","osm":"https://www.openstreetmap.org/way/290275160"}},{"type":"Feature","geometry":{"type":"Point","coordinates":[37.602088,55.805719]},"properties":{"name":"Boiler House","kind":"Boiler house","fuel":"gas","osm":"https://www.openstreetmap.org/way/308094484"}},{"type":"Feature","geometry":{"type":"Point","coordinates":[37.30453,55.664283]},"properties":{"name":"CHP Plant","kind":"CHP plant","fuel":"gas","osm":"https://www.openstreetmap.org/way/370226533"}},{"type":"Feature","geometry":{"type":"Point","coordinates":[37.648771,55.705446]},"properties":{"name":"VTI CHP Plant","kind":"CHP plant","operator":"VTI OJSC","fuel":"gas","osm":"https://www.openstreetmap.org/way/403248440"}},{"type":"Feature","geometry":{"type":"Point","coordinates":[37.855751,55.764067]},"properties":{"name":"Boiler House No. 2","kind":"Boiler house","fuel":"gas","osm":"https://www.openstreetmap.org/way/437724229"}},{"type":"Feature","geometry":{"type":"Point","coordinates":[37.857565,55.76147]},"properties":{"name":"Boiler House No. 6","kind":"Boiler house","address":"13A Pobedy St","osm":"https://www.openstreetmap.org/way/443973852"}},{"type":"Feature","geometry":{"type":"Point","coordinates":[37.340603,55.865061]},"properties":{"name":"Boiler House","kind":"Boiler house","address":"9A Pyatnitskoye Hwy, km 6","fuel":"gas","osm":"https://www.openstreetmap.org/way/452056317"}},{"type":"Feature","geometry":{"type":"Point","coordinates":[37.409524,55.910566]},"properties":{"name":"Boiler House","kind":"Boiler house","osm":"https://www.openstreetmap.org/way/485345469"}},{"type":"Feature","geometry":{"type":"Point","coordinates":[37.377714,55.721617]},"properties":{"name":"Boiler House","kind":"Boiler house","fuel":"gas","osm":"https://www.openstreetmap.org/way/493757714"}},{"type":"Feature","geometry":{"type":"Point","coordinates":[37.49282,55.820327]},"properties":{"name":"Boiler House","kind":"Boiler house","address":"11, 1st Radiatorskaya St, bldg 2","osm":"https://www.openstreetmap.org/way/514760964"}},{"type":"Feature","geometry":{"type":"Point","coordinates":[37.69849,55.645491]},"properties":{"name":"Kuryanovo District Heating Station","kind":"CHP plant","osm":"https://www.openstreetmap.org/way/645257726"}},{"type":"Feature","geometry":{"type":"Point","coordinates":[37.846414,55.78737]},"properties":{"name":"Boiler House","kind":"Boiler house","osm":"https://www.openstreetmap.org/way/785985423"}},{"type":"Feature","geometry":{"type":"Point","coordinates":[37.432268,55.607479]},"properties":{"name":"District Heating Station","kind":"Heating station","osm":"https://www.openstreetmap.org/way/847284504"}},{"type":"Feature","geometry":{"type":"Point","coordinates":[37.445542,55.584806]},"properties":{"name":"Prokshino District Heating Station","kind":"Heating station","osm":"https://www.openstreetmap.org/way/876034062"}},{"type":"Feature","geometry":{"type":"Point","coordinates":[37.513238,55.81355]},"properties":{"name":"Boiler House","kind":"Boiler house","fuel":"gas","osm":"https://www.openstreetmap.org/way/904962401"}},{"type":"Feature","geometry":{"type":"Point","coordinates":[37.406723,55.871465]},"properties":{"name":"Boiler House","kind":"Boiler house","fuel":"gas","osm":"https://www.openstreetmap.org/way/1024801970"}},{"type":"Feature","geometry":{"type":"Point","coordinates":[37.324929,55.693481]},"properties":{"name":"Boiler House","kind":"Boiler house","fuel":"gas","osm":"https://www.openstreetmap.org/way/1025131093"}},{"type":"Feature","geometry":{"type":"Point","coordinates":[37.317768,55.556068]},"properties":{"name":"Boiler House","kind":"Boiler house","fuel":"gas","osm":"https://www.openstreetmap.org/way/1090707341"}},{"type":"Feature","geometry":{"type":"Point","coordinates":[37.338389,55.553666]},"properties":{"name":"Boiler House","kind":"Boiler house","fuel":"gas","osm":"https://www.openstreetmap.org/way/1091325612"}},{"type":"Feature","geometry":{"type":"Point","coordinates":[37.496402,55.556996]},"properties":{"name":"Boiler House","kind":"Boiler house","fuel":"gas","osm":"https://www.openstreetmap.org/way/1106785425"}},{"type":"Feature","geometry":{"type":"Point","coordinates":[37.323066,55.69788]},"properties":{"name":"Boiler House","kind":"Boiler house","fuel":"gas","osm":"https://www.openstreetmap.org/way/1125561235"}},{"type":"Feature","geometry":{"type":"Point","coordinates":[37.355811,55.700847]},"properties":{"name":"CHP Plant","kind":"CHP plant","fuel":"gas","osm":"https://www.openstreetmap.org/way/1153726488"}},{"type":"Feature","geometry":{"type":"Point","coordinates":[37.317219,55.666247]},"properties":{"name":"Boiler House","kind":"Boiler house","fuel":"gas","osm":"https://www.openstreetmap.org/way/1289744437"}},{"type":"Feature","geometry":{"type":"Point","coordinates":[37.381592,55.81033]},"properties":{"name":"Boiler House","kind":"Boiler house","fuel":"gas","osm":"https://www.openstreetmap.org/way/1348028077"}},{"type":"Feature","geometry":{"type":"Point","coordinates":[37.366475,55.914442]},"properties":{"name":"Boiler House","kind":"Boiler house","fuel":"gas","osm":"https://www.openstreetmap.org/way/1431001625"}},{"type":"Feature","geometry":{"type":"Point","coordinates":[37.651089,55.705391]},"properties":{"name":"CHP-9","kind":"CHP plant","operator":"Mosenergo PJSC","fuel":"gas","power":"668.725 MW","osm":"https://www.openstreetmap.org/relation/1675680"}},{"type":"Feature","geometry":{"type":"Point","coordinates":[37.346845,55.838678]},"properties":{"name":"Penyagino District Heating Station","kind":"Heating station","osm":"https://www.openstreetmap.org/relation/2768315"}},{"type":"Feature","geometry":{"type":"Point","coordinates":[37.688055,55.915025]},"properties":{"name":"CHP-27","kind":"CHP plant","operator":"Mosenergo OJSC","fuel":"gas","power":"2180 MW","osm":"https://www.openstreetmap.org/relation/2863009"}},{"type":"Feature","geometry":{"type":"Point","coordinates":[37.307725,55.839087]},"properties":{"name":"Boiler House No. 7","kind":"Boiler house","operator":"Krasnogorskaya Teploset JSC","fuel":"gas","osm":"https://www.openstreetmap.org/relation/3762809"}},{"type":"Feature","geometry":{"type":"Point","coordinates":[37.855131,55.70196]},"properties":{"name":"Zhulebino District Heating Station","kind":"Heating station","operator":"Mosenergo PJSC","osm":"https://www.openstreetmap.org/relation/3797963"}},{"type":"Feature","geometry":{"type":"Point","coordinates":[37.309226,55.819764]},"properties":{"name":"Boiler House No. 2","kind":"Boiler house","operator":"Krasnogorskaya Teploset JSC","fuel":"gas","osm":"https://www.openstreetmap.org/relation/4262710"}},{"type":"Feature","geometry":{"type":"Point","coordinates":[37.31549,55.875434]},"properties":{"name":"Boiler House","kind":"Boiler house","fuel":"gas","osm":"https://www.openstreetmap.org/relation/5463513"}},{"type":"Feature","geometry":{"type":"Point","coordinates":[37.507779,55.893122]},"properties":{"name":"CHP-21","kind":"CHP plant","operator":"Mosenergo PJSC","address":"9 Izhorskaya St","fuel":"gas","power":"5607.99 MW","osm":"https://www.openstreetmap.org/relation/6044632"}},{"type":"Feature","geometry":{"type":"Point","coordinates":[37.890905,55.790467]},"properties":{"name":"Boiler House","kind":"Boiler house","osm":"https://www.openstreetmap.org/relation/6160087"}},{"type":"Feature","geometry":{"type":"Point","coordinates":[37.4021,55.659563]},"properties":{"name":"Tereshkovo Gas Turbine Power Plant","kind":"CHP plant","fuel":"gas","osm":"https://www.openstreetmap.org/relation/6450434"}},{"type":"Feature","geometry":{"type":"Point","coordinates":[37.424898,55.843416]},"properties":{"name":"District Heating Station No. 32 Tushino-2","kind":"Heating station","operator":"MOEK","osm":"https://www.openstreetmap.org/relation/6680289"}},{"type":"Feature","geometry":{"type":"Point","coordinates":[37.587823,55.549602]},"properties":{"name":"Boiler House","kind":"Boiler house","osm":"https://www.openstreetmap.org/relation/7017763"}},{"type":"Feature","geometry":{"type":"Point","coordinates":[37.339491,55.817199]},"properties":{"name":"Boiler House No. 6","kind":"Boiler house","operator":"Krasnogorskaya Teploset JSC","fuel":"gas","osm":"https://www.openstreetmap.org/relation/7022859"}},{"type":"Feature","geometry":{"type":"Point","coordinates":[37.517,55.892446]},"properties":{"name":"CHP-21, Stage 28","kind":"CHP plant","operator":"Mosenergo PJSC","fuel":"gas","power":"46.52 MW","osm":"https://www.openstreetmap.org/relation/7037891"}},{"type":"Feature","geometry":{"type":"Point","coordinates":[37.330536,55.857364]},"properties":{"name":"Boiler House","kind":"Boiler house","osm":"https://www.openstreetmap.org/relation/7251422"}},{"type":"Feature","geometry":{"type":"Point","coordinates":[37.327908,55.809895]},"properties":{"name":"Boiler House No. 26","kind":"Boiler house","operator":"Krasnogorskaya Teploset JSC","fuel":"gas","osm":"https://www.openstreetmap.org/relation/7255252"}},{"type":"Feature","geometry":{"type":"Point","coordinates":[37.324216,55.809024]},"properties":{"name":"Boiler House No. 12","kind":"Boiler house","operator":"Krasnogorskaya Teploset JSC","fuel":"gas","osm":"https://www.openstreetmap.org/relation/7255255"}},{"type":"Feature","geometry":{"type":"Point","coordinates":[37.314822,55.807469]},"properties":{"name":"Boiler House No. 38","kind":"Boiler house","operator":"Krasnogorskaya Teploset JSC","fuel":"gas","osm":"https://www.openstreetmap.org/relation/7255263"}},{"type":"Feature","geometry":{"type":"Point","coordinates":[37.59377,55.645054]},"properties":{"name":"Volkhonka-ZiL District Heating Station","kind":"CHP plant","operator":"Mosenergo PJSC","fuel":"gas","power":"279.12 MW","osm":"https://www.openstreetmap.org/relation/7322364"}},{"type":"Feature","geometry":{"type":"Point","coordinates":[37.356558,55.814527]},"properties":{"name":"Boiler House","kind":"Boiler house","osm":"https://www.openstreetmap.org/relation/7364984"}},{"type":"Feature","geometry":{"type":"Point","coordinates":[37.359448,55.816494]},"properties":{"name":"Boiler House","kind":"Boiler house","fuel":"gas","osm":"https://www.openstreetmap.org/relation/7365949"}},{"type":"Feature","geometry":{"type":"Point","coordinates":[37.375128,55.844194]},"properties":{"name":"District Heating Station No. 38 Mitino","kind":"Heating station","osm":"https://www.openstreetmap.org/relation/7906587"}},{"type":"Feature","geometry":{"type":"Point","coordinates":[37.384593,55.791296]},"properties":{"name":"Strogino Combined-Cycle Power Plant named after M. A. Lapir","kind":"CHP plant","fuel":"gas","osm":"https://www.openstreetmap.org/relation/8041844"}},{"type":"Feature","geometry":{"type":"Point","coordinates":[37.569889,55.780144]},"properties":{"name":"Boiler House","kind":"Boiler house","address":"15 Leningradsky Ave, bldg 22","osm":"https://www.openstreetmap.org/relation/8180261"}},{"type":"Feature","geometry":{"type":"Point","coordinates":[37.312772,55.870193]},"properties":{"name":"Boiler House","kind":"Boiler house","osm":"https://www.openstreetmap.org/relation/9506749"}},{"type":"Feature","geometry":{"type":"Point","coordinates":[37.459276,55.812777]},"properties":{"name":"Pokrovskoye-Streshnevo Local Heating Station","kind":"CHP plant","operator":"MOEK PJSC","fuel":"gas","osm":"https://www.openstreetmap.org/relation/9524871"}},{"type":"Feature","geometry":{"type":"Point","coordinates":[37.730994,55.734099]},"properties":{"name":"Frezer District Heating Station","kind":"Heating station","operator":"Mosenergo PJSC","osm":"https://www.openstreetmap.org/relation/9527693"}},{"type":"Feature","geometry":{"type":"Point","coordinates":[37.630937,55.74784]},"properties":{"name":"GES-1 Power Plant named after P. G. Smidovich","kind":"CHP plant","operator":"Mosenergo PJSC","fuel":"gas","power":"1036 MW","osm":"https://www.openstreetmap.org/relation/9975357"}},{"type":"Feature","geometry":{"type":"Point","coordinates":[37.527665,55.759484]},"properties":{"name":"Krasnaya Presnya District Heating Station","kind":"Heating station","fuel":"gas","osm":"https://www.openstreetmap.org/relation/11019719"}},{"type":"Feature","geometry":{"type":"Point","coordinates":[37.528343,55.76042]},"properties":{"name":"Mezhdunarodnaya Power Plant","kind":"CHP plant","fuel":"gas","osm":"https://www.openstreetmap.org/relation/11019720"}},{"type":"Feature","geometry":{"type":"Point","coordinates":[37.607192,55.662872]},"properties":{"name":"Local Heating Station No. 54","kind":"Heating station","osm":"https://www.openstreetmap.org/relation/11221139"}},{"type":"Feature","geometry":{"type":"Point","coordinates":[37.408648,55.832431]},"properties":{"name":"District Heating Station No. 37 Tushino-3","kind":"Heating station","fuel":"gas","osm":"https://www.openstreetmap.org/relation/11334749"}},{"type":"Feature","geometry":{"type":"Point","coordinates":[37.327708,55.816444]},"properties":{"name":"Boiler House No. 1","kind":"Boiler house","operator":"Krasnogorskaya Teploset JSC","fuel":"gas","osm":"https://www.openstreetmap.org/relation/11497202"}},{"type":"Feature","geometry":{"type":"Point","coordinates":[37.403252,55.875534]},"properties":{"name":"Boiler House","kind":"Boiler house","osm":"https://www.openstreetmap.org/relation/11808370"}},{"type":"Feature","geometry":{"type":"Point","coordinates":[37.772177,55.821412]},"properties":{"name":"CHP-23","kind":"CHP plant","operator":"Mosenergo OJSC","fuel":"gas","power":"5268.39 MW","osm":"https://www.openstreetmap.org/relation/11993050"}},{"type":"Feature","geometry":{"type":"Point","coordinates":[37.425047,55.840893]},"properties":{"name":"Tushino-4 District Heating Station","kind":"Heating station","fuel":"gas","osm":"https://www.openstreetmap.org/relation/13315832"}},{"type":"Feature","geometry":{"type":"Point","coordinates":[37.398654,55.870976]},"properties":{"name":"Boiler House","kind":"Boiler house","fuel":"gas","osm":"https://www.openstreetmap.org/relation/13458323"}},{"type":"Feature","geometry":{"type":"Point","coordinates":[37.351933,55.796258]},"properties":{"name":"Boiler House","kind":"Boiler house","fuel":"gas","osm":"https://www.openstreetmap.org/relation/13479224"}},{"type":"Feature","geometry":{"type":"Point","coordinates":[37.512081,55.754916]},"properties":{"name":"Local Heating Station KTS-11","kind":"Heating station","fuel":"gas","osm":"https://www.openstreetmap.org/relation/13500168"}},{"type":"Feature","geometry":{"type":"Point","coordinates":[37.602991,55.556919]},"properties":{"name":"Boiler House","kind":"Boiler house","fuel":"gas","osm":"https://www.openstreetmap.org/relation/13923754"}},{"type":"Feature","geometry":{"type":"Point","coordinates":[37.403242,55.894699]},"properties":{"name":"Boiler House","kind":"Boiler house","fuel":"gas","osm":"https://www.openstreetmap.org/relation/14126138"}},{"type":"Feature","geometry":{"type":"Point","coordinates":[37.641965,55.785464]},"properties":{"name":"Pereyaslavskaya District Heating Station","kind":"Heating station","fuel":"gas","osm":"https://www.openstreetmap.org/relation/14209009"}},{"type":"Feature","geometry":{"type":"Point","coordinates":[37.648295,55.70215]},"properties":{"name":"Boiler House","kind":"Boiler house","fuel":"gas","osm":"https://www.openstreetmap.org/relation/14615491"}},{"type":"Feature","geometry":{"type":"Point","coordinates":[37.322221,55.698957]},"properties":{"name":"Boiler House","kind":"Boiler house","fuel":"gas","osm":"https://www.openstreetmap.org/relation/15059279"}},{"type":"Feature","geometry":{"type":"Point","coordinates":[37.385115,55.901601]},"properties":{"name":"Boiler House","kind":"Boiler house","fuel":"gas","osm":"https://www.openstreetmap.org/relation/15066327"}},{"type":"Feature","geometry":{"type":"Point","coordinates":[37.342188,55.821257]},"properties":{"name":"Boiler House No. 19","kind":"Boiler house","operator":"Krasnogorskaya Teploset JSC","fuel":"gas","osm":"https://www.openstreetmap.org/relation/16991110"}},{"type":"Feature","geometry":{"type":"Point","coordinates":[37.318648,55.811174]},"properties":{"name":"Boiler House No. 16","kind":"Boiler house","operator":"Krasnogorskaya Teploset JSC","fuel":"gas","osm":"https://www.openstreetmap.org/relation/16991111"}},{"type":"Feature","geometry":{"type":"Point","coordinates":[37.363306,55.918579]},"properties":{"name":"Boiler House","kind":"Boiler house","fuel":"gas","osm":"https://www.openstreetmap.org/relation/17137689"}},{"type":"Feature","geometry":{"type":"Point","coordinates":[37.364413,55.823823]},"properties":{"name":"Boiler House","kind":"Boiler house","osm":"https://www.openstreetmap.org/relation/17652352"}},{"type":"Feature","geometry":{"type":"Point","coordinates":[37.318759,55.810527]},"properties":{"name":"Boiler House","kind":"Boiler house","fuel":"gas","osm":"https://www.openstreetmap.org/relation/19080435"}},{"type":"Feature","geometry":{"type":"Point","coordinates":[37.596945,55.781575]},"properties":{"name":"Boiler House","kind":"Boiler house","address":"29 Novoslobodskaya St, bldg 1","osm":"https://www.openstreetmap.org/relation/20087529"}},{"type":"Feature","geometry":{"type":"Point","coordinates":[37.387503,55.852702]},"properties":{"name":"Novobrattsevo Mini Boiler House","kind":"Boiler house","fuel":"gas","osm":"https://www.openstreetmap.org/relation/20365320"}}]}